[{"OBJECT_NAME":"STARLINK-6279","OBJECT_ID":"2023-061AP","EPOCH":"2026-03-09T08:27:58.382784","MEAN_MOTION":15.02533286,"ECCENTRICITY":0.00012913,"INCLINATION":43.0033,"RA_OF_ASC_NODE":186.3227,"ARG_OF_PERICENTER":270.9807,"MEAN_ANOMALY":89.0887,"EPHEMERIS_TYPE":0,"CLASSIFICATION_TYPE":"U","NORAD_CAT_ID":56411,"ELEMENT_SET_NO":999,"REV_AT_EPOCH":15685,"BSTAR":-7.546701e-6,"MEAN_MOTION_DOT":-3.06e-6,"MEAN_MOTION_DDOT":0},{"OBJECT_NAME":"SITRO-AIS 26","OBJECT_ID":"2024-039S","EPOCH":"2026-03-09T23:26:14.805600","MEAN_MOTION":14.92446154,"ECCENTRICITY":0.01456696,"INCLINATION":95.3934,"RA_OF_ASC_NODE":166.8629,"ARG_OF_PERICENTER":315.8086,"MEAN_ANOMALY":43.1576,"EPHEMERIS_TYPE":0,"CLASSIFICATION_TYPE":"U","NORAD_CAT_ID":59067,"ELEMENT_SET_NO":999,"REV_AT_EPOCH":10991,"BSTAR":0.00034113831,"MEAN_MOTION_DOT":4.263e-5,"MEAN_MOTION_DDOT":0}]
